$$SOE
2461288.500000000, A.D. 2026-Sep-05 00:00:00.0000, 4.054816132623013E+08, -5.030216498235967E+08, -6.459286074847659E+07,
2461295.500000000, A.D. 2026-Sep-12 00:00:00.0000, 4.116187915913249E+08, -4.976528241097702E+08, -6.444114863192415E+07,
2461302.500000000, A.D. 2026-Sep-19 00:00:00.0000, 4.176829041691248E+08, -4.921956639792919E+08, -6.427799338088211E+07,
2461309.500000000, A.D. 2026-Sep-26 00:00:00.0000, 4.236727688598289E+08, -4.866510173743058E+08, -6.410340784554011E+07,
2461316.500000000, A.D. 2026-Oct-03 00:00:00.0000, 4.295872095192829E+08, -4.810197455401646E+08, -6.391740632726401E+07,
2461323.500000000, A.D. 2026-Oct-10 00:00:00.0000, 4.354250560344694E+08, -4.753027229638136E+08, -6.372000457928941E+07,
2461330.500000000, A.D. 2026-Oct-17 00:00:00.0000, 4.411851443324636E+08, -4.695008373884222E+08, -6.351121981159261E+07,
2461337.500000000, A.D. 2026-Oct-24 00:00:00.0000, 4.468663163833035E+08, -4.636149899269714E+08, -6.329107070393819E+07,
2461344.500000000, A.D. 2026-Oct-31 00:00:00.0000, 4.524674202954590E+08, -4.576460953414074E+08, -6.305957744146872E+07,
2461351.500000000, A.D. 2026-Nov-07 00:00:00.0000, 4.579873108429567E+08, -4.515950824130528E+08, -6.281676179769555E+07,
2461358.500000000, A.D. 2026-Nov-14 00:00:00.0000, 4.634248506252906E+08, -4.454628935167478E+08, -6.256264721058407E+07,
2461365.500000000, A.D. 2026-Nov-21 00:00:00.0000, 4.687789100486430E+08, -4.392504827170786E+08, -6.229725862961945E+07,
2461372.500000000, A.D. 2026-Nov-28 00:00:00.0000, 4.740483651301471E+08, -4.329588153948299E+08, -6.202062228785831E+07,
2461379.500000000, A.D. 2026-Dec-05 00:00:00.0000, 4.792320967444181E+08, -4.265888700595266E+08, -6.173276578423914E+07,
2461386.500000000, A.D. 2026-Dec-12 00:00:00.0000, 4.843289914774408E+08, -4.201416392366747E+08, -6.143371823673216E+07,
2461393.500000000, A.D. 2026-Dec-19 00:00:00.0000, 4.893379422008706E+08, -4.136181294232249E+08, -6.112351033246076E+07,
2461400.500000000, A.D. 2026-Dec-26 00:00:00.0000, 4.942578482245057E+08, -4.070193609793273E+08, -6.080217433245629E+07,
2461407.500000000, A.D. 2027-Jan-02 00:00:00.0000, 4.990876153026323E+08, -4.003463681473505E+08, -6.046974407177421E+07,
2461414.500000000, A.D. 2027-Jan-09 00:00:00.0000, 5.038261556106941E+08, -3.936001991781032E+08, -6.012625496392523E+07,
2461421.500000000, A.D. 2027-Jan-16 00:00:00.0000, 5.084723877266610E+08, -3.867819165555867E+08, -5.977174401206395E+07,
2461428.500000000, A.D. 2027-Jan-23 00:00:00.0000, 5.130252366616942E+08, -3.798925973600048E+08, -5.940624983436419E+07,
2461435.500000000, A.D. 2027-Jan-30 00:00:00.0000, 5.174836341262080E+08, -3.729333338167671E+08, -5.902981272472070E+07,
2461442.500000000, A.D. 2027-Feb-06 00:00:00.0000, 5.218465194545625E+08, -3.659052336912666E+08, -5.864247476002397E+07,
2461449.500000000, A.D. 2027-Feb-13 00:00:00.0000, 5.261128407270078E+08, -3.588094193097752E+08, -5.824427981226255E+07,
2461456.500000000, A.D. 2027-Feb-20 00:00:00.0000, 5.302815537241368E+08, -3.516470259978435E+08, -5.783527331350110E+07,
2461463.500000000, A.D. 2027-Feb-27 00:00:00.0000, 5.343516201086410E+08, -3.444192031500025E+08, -5.741550216458626E+07,
2461470.500000000, A.D. 2027-Mar-06 00:00:00.0000, 5.383220078516831E+08, -3.371271160077418E+08, -5.698501490744108E+07,
2461477.500000000, A.D. 2027-Mar-13 00:00:00.0000, 5.421916923036556E+08, -3.297719460960015E+08, -5.654386184688580E+07,
2461484.500000000, A.D. 2027-Mar-20 00:00:00.0000, 5.459596567801623E+08, -3.223548911527837E+08, -5.609209508680585E+07,
2461491.500000000, A.D. 2027-Mar-27 00:00:00.0000, 5.496248928654902E+08, -3.148771651008096E+08, -5.562976854421057E+07,
2461498.500000000, A.D. 2027-Apr-03 00:00:00.0000, 5.531864006367066E+08, -3.073399981089382E+08, -5.515693796381035E+07,
2461505.500000000, A.D. 2027-Apr-10 00:00:00.0000, 5.566431888698286E+08, -2.997446367202941E+08, -5.467366093692392E+07,
2461512.500000000, A.D. 2027-Apr-17 00:00:00.0000, 5.599942752502159E+08, -2.920923440614553E+08, -5.417999692794946E+07,
2461519.500000000, A.D. 2027-Apr-24 00:00:00.0000, 5.632386866662407E+08, -2.843844001948460E+08, -5.367600732074259E+07,
2461526.500000000, A.D. 2027-May-01 00:00:00.0000, 5.663754598854861E+08, -2.766221025862439E+08, -5.316175551005815E+07,
2461533.500000000, A.D. 2027-May-08 00:00:00.0000, 5.694036429206411E+08, -2.688067659384091E+08, -5.263730700501065E+07,
2461540.500000000, A.D. 2027-May-15 00:00:00.0000, 5.723222955885552E+08, -2.609397204369156E+08, -5.210272932930012E+07,
2461547.500000000, A.D. 2027-May-22 00:00:00.0000, 5.751304876990141E+08, -2.530223109997077E+08, -5.155809178655328E+07,
2461554.500000000, A.D. 2027-May-29 00:00:00.0000, 5.778272982290801E+08, -2.450558989983297E+08, -5.100346551850100E+07,
2461561.500000000, A.D. 2027-Jun-05 00:00:00.0000, 5.804118163680437E+08, -2.370418633185058E+08, -5.043892368111852E+07,
2461568.500000000, A.D. 2027-Jun-12 00:00:00.0000, 5.828831424261230E+08, -2.289816003280818E+08, -4.986454151924035E+07,
2461575.500000000, A.D. 2027-Jun-19 00:00:00.0000, 5.852403882764213E+08, -2.208765236874098E+08, -4.928039638558486E+07,
2461582.500000000, A.D. 2027-Jun-26 00:00:00.0000, 5.874826776098348E+08, -2.127280642635337E+08, -4.868656775099365E+07,
2461589.500000000, A.D. 2027-Jul-03 00:00:00.0000, 5.896091461351756E+08, -2.045376701398131E+08, -4.808313721709798E+07,
2461596.500000000, A.D. 2027-Jul-10 00:00:00.0000, 5.916189417614371E+08, -1.963068067121077E+08, -4.747018853382153E+07,
2461603.500000000, A.D. 2027-Jul-17 00:00:00.0000, 5.935112247985929E+08, -1.880369569102138E+08, -4.684780762795585E+07,
2461610.500000000, A.D. 2027-Jul-24 00:00:00.0000, 5.952851683332778E+08, -1.797296216071333E+08, -4.621608266201892E+07,
2461617.500000000, A.D. 2027-Jul-31 00:00:00.0000, 5.969399591905562E+08, -1.713863199802510E+08, -4.557510414161895E+07,
2461624.500000000, A.D. 2027-Aug-07 00:00:00.0000, 5.984747992811347E+08, -1.630085886720510E+08, -4.492496495856794E+07,
2461631.500000000, A.D. 2027-Aug-14 00:00:00.0000, 5.998889050335870E+08, -1.545979800033919E+08, -4.426576017927780E+07,
2461638.500000000, A.D. 2027-Aug-21 00:00:00.0000, 6.011815055301361E+08, -1.461560626037368E+08, -4.359758691004964E+07,
2461645.500000000, A.D. 2027-Aug-28 00:00:00.0000, 6.023518427765361E+08, -1.376844232549115E+08, -4.292054445559342E+07,
2461652.500000000, A.D. 2027-Sep-04 00:00:00.0000, 6.033991729246246E+08, -1.291846674454785E+08, -4.223473445800639E+07,
2461659.500000000, A.D. 2027-Sep-11 00:00:00.0000, 6.043227670523576E+08, -1.206584192965588E+08, -4.154026094243549E+07,
2461666.500000000, A.D. 2027-Sep-18 00:00:00.0000, 6.051219116345993E+08, -1.121073215087905E+08, -4.083723033497705E+07,
2461673.500000000, A.D. 2027-Sep-25 00:00:00.0000, 6.057959089335709E+08, -1.035330354073766E+08, -4.012575148037335E+07,
2461680.500000000, A.D. 2027-Oct-02 00:00:00.0000, 6.063440773841168E+08, -9.493724105683091E+07, -3.940593566437308E+07,
2461687.500000000, A.D. 2027-Oct-09 00:00:00.0000, 6.067657519964945E+08, -8.632163744903828E+07, -3.867789664341922E+07,
2461694.500000000, A.D. 2027-Oct-16 00:00:00.0000, 6.070602848401660E+08, -7.768794281868443E+07, -3.794175069216247E+07,
2461701.500000000, A.D. 2027-Oct-23 00:00:00.0000, 6.072270458686692E+08, -6.903789509100968E+07, -3.719761669328719E+07,
2461708.500000000, A.D. 2027-Oct-30 00:00:00.0000, 6.072654244602487E+08, -6.037325185068841E+07, -3.644561625425585E+07,
2461715.500000000, A.D. 2027-Nov-06 00:00:00.0000, 6.071748305111312E+08, -5.169578870257694E+07, -3.568587365212481E+07,
2461722.500000000, A.D. 2027-Nov-13 00:00:00.0000, 6.069546930970473E+08, -4.300729809989998E+07, -3.491851559407131E+07,
2461729.500000000, A.D. 2027-Nov-20 00:00:00.0000, 6.066044596052458E+08, -3.430959082570539E+07, -3.414367123844423E+07,
2461736.500000000, A.D. 2027-Nov-27 00:00:00.0000, 6.061235969541109E+08, -2.560449716265182E+07, -3.336147238235597E+07,
2461743.500000000, A.D. 2027-Dec-04 00:00:00.0000, 6.055115928767645E+08, -1.689386683647149E+07, -3.257205355543195E+07,
2461750.500000000, A.D. 2027-Dec-11 00:00:00.0000, 6.047679567182736E+08, -8.179568696548149E+06, -3.177555204789568E+07,
2461757.500000000, A.D. 2027-Dec-18 00:00:00.0000, 6.038922200214720E+08, 5.365095276904386E+05, -3.097210792579075E+07,
2461764.500000000, A.D. 2027-Dec-25 00:00:00.0000, 6.028839370531609E+08, 9.252461392806916E+06, -3.016186404730415E+07,
2461771.500000000, A.D. 2028-Jan-01 00:00:00.0000, 6.017426853116720E+08, 1.796636184490098E+07, -2.934496608261858E+07,
$$EOE